[{"OBJECT_NAME":"STARLINK-3999","OBJECT_ID":"2022-053BA","EPOCH":"2026-03-09T13:21:57.367872","MEAN_MOTION":15.08835858,"ECCENTRICITY":0.0001438,"INCLINATION":53.2175,"RA_OF_ASC_NODE":134.7197,"ARG_OF_PERICENTER":89.2563,"MEAN_ANOMALY":270.8594,"EPHEMERIS_TYPE":0,"CLASSIFICATION_TYPE":"U","NORAD_CAT_ID":52704,"ELEMENT_SET_NO":999,"REV_AT_EPOCH":21129,"BSTAR":-2.901e-5,"MEAN_MOTION_DOT":-7.5e-6,"MEAN_MOTION_DDOT":0},{"OBJECT_NAME":"STEP 2","OBJECT_ID":"1994-029A","EPOCH":"2026-03-09T19:35:47.124096","MEAN_MOTION":14.90069818,"ECCENTRICITY":0.0082455,"INCLINATION":81.9356,"RA_OF_ASC_NODE":275.268,"ARG_OF_PERICENTER":225.1907,"MEAN_ANOMALY":134.2589,"EPHEMERIS_TYPE":0,"CLASSIFICATION_TYPE":"U","NORAD_CAT_ID":23105,"ELEMENT_SET_NO":999,"REV_AT_EPOCH":70508,"BSTAR":0.00037800709,"MEAN_MOTION_DOT":3.917e-5,"MEAN_MOTION_DDOT":0}]
